#aV2024  4 12  0  0  0.00000000     288 DD+AD WGS84 FIT  NGA
## 2309 432000.00000000   300.00000000 60412 0.0000000000000
+   32     1  2  3  4  5  6  7  8  9 10 11 12 13 14 15 16 17
+         18 19 20 21 22 23 24 25 26 27 28 29 30 31 32  0  0
+          0  0  0  0  0  0  0  0  0  0  0  0  0  0  0  0  0
+          0  0  0  0  0  0  0  0  0  0  0  0  0  0  0  0  0
+          0  0  0  0  0  0  0  0  0  0  0  0  0  0  0  0  0
++         2  2  2  2  2  2  2  2  2  2  2  2  2  2  2  2  2
++         2  2  2  2  2  2  2  2  2  2  2  2  2  2  2  0  0
++         0  0  0  0  0  0  0  0  0  0  0  0  0  0  0  0  0
++         0  0  0  0  0  0  0  0  0  0  0  0  0  0  0  0  0
++         0  0  0  0  0  0  0  0  0  0  0  0  0  0  0  0  0
%c cc cc ccc ccc cccc cccc cccc cccc ccccc ccccc ccccc ccccc
%c cc cc ccc ccc cccc cccc cccc cccc ccccc ccccc ccccc ccccc
%f  0.0000000  0.000000000  0.00000000000  0.000000000000000
%f  0.0000000  0.000000000  0.00000000000  0.000000000000000
%i    0    0    0    0      0      0      0      0         0
%i    0    0    0    0      0      0      0      0         0
/*      NGA, ST. LOUIS,MO.                                  
/*   EPHEMERIS COMPUTED FROM 2 DAYS OF DATA                 
/*   EPOCHA v9 SMOOTHER                                     
/*   G2296 IERS2010 SATIGS SATAPC                           
*  2024  4 12 22 30  0.00000000
P  1  19737.764963  10936.460543 -14633.065891    179.579921                    
V  1 -17813.443334   -118.156344 -24389.395998      0.024473                    
P  2   9909.809722  13529.938186 -20181.133812   -454.410438                    
V  2 -26572.458225   1913.322704 -11225.411304      0.064563                    
P  3  12393.392347  23564.963479    329.073381    307.233947                    
V  3  -1489.077023   1437.558381 -32170.285571      0.212718                    
P  4   4138.621507  17672.417752  19363.410891    337.364885                    
V  4 -15028.144342  19497.445965 -14724.382652      0.087745                    
P  5  -3321.157288 -22959.094249  12673.710980   -168.911720                    
V  5  10103.153184  13088.198175  26088.328729     -0.013909                    
P  6  23480.817060  -5919.271726  11104.899875    324.751919                    
V  6  13809.915038   2352.054402 -27998.214723     -0.179139                    
P  7  25068.707369   6472.953606   7449.949502   -105.927888                    
V  7  -8790.484900   2081.828259  29345.887189     -0.084707                    
P  8  -2829.487523  22836.192429 -12986.630199    118.116391                    
V  8 -10755.585445  12807.978314  25490.043267      0.233269                    
P  9  14387.371224   5514.472428  21559.040758    158.216418                    
V  9 -14029.636312  23733.477655   3227.419028      0.136006                    
P 10 -15400.676218   1304.633701 -21439.993040     -8.198529                    
V 10 -12396.998138 -24656.816156   7025.128624     -0.043155                    
P 11  13138.745395 -12319.614173  19527.668527   -634.688701                    
V 11  24526.026450   3496.496354 -14358.959404     -0.105955                    
P 12  -9954.800470 -24647.560248   -998.635539   -496.014669                    
V 12   2841.821434   -229.261735 -31732.213470     -0.034547                    
P 13  12409.725530 -22214.543174  -7387.310426    642.217901                    
V 13   7864.150362  -5317.626437  30250.204315      0.031342                    
P 14  17323.254233   2664.202080 -19983.948383    374.761725                    
V 14  10129.350477  23353.323210  11677.451846      0.095336                    
P 15   -266.466959 -23275.514526 -13098.654619    147.773447                    
V 15   9132.074680 -13440.622256  24831.571604      0.040539                    
P 16  -2963.817462  20954.956233  15429.025135   -318.247900                    
V 16  -9935.260760 -17944.669019  22428.914647      0.093705                    
P 17  19323.848259  -7615.963415 -16225.101753    711.228689                    
V 17 -11151.506423  18242.813068 -21145.243704     -0.002779                    
P 18 -25366.378531  -5660.286564   5954.264909   -593.372316                    
V 18   7613.849082  -1651.896963  30745.799752     -0.067059                    
P 19  19955.206878 -14493.018047  -9525.680361    467.344847                    
V 19  -5442.671539  10936.098883 -28960.906968      0.053310                    
P 20   5297.874273 -16597.080042  20152.168248    380.407052                    
V 20  16318.923709  19535.466588  11685.832016     -0.013946                    
P 21   4681.420453  14647.933202 -21289.531055    127.462627                    
V 21 -27986.764353   1267.106634  -4190.027120     -0.016180                    
P 22  13701.484809  -6112.117771 -21499.141635      1.441500                    
V 22  10655.229434  26223.464021   -368.548878     -0.056367                    
P 23 -18326.450907 -11063.947019 -15823.245082    199.499133                    
V 23  -8453.856030 -18204.327360  22299.644304      0.091773                    
P 24  -7714.016528 -15104.355783 -20931.839603   -458.616200                    
V 24  25597.378171  -1970.835821  -7760.385118     -0.044611                    
P 25 -16587.361837 -19384.816426   7512.435663    493.617981                    
V 25  -2272.699891 -10072.739681 -29403.580611      0.008444                    
P 26 -11188.404145  11509.244948  20971.624713    167.487629                    
V 26 -14986.979687 -22638.941028   4761.526197     -0.050469                    
P 27 -12215.529912  23175.864060  -2873.306159    -18.250943                    
V 27  -4397.128517   1185.981378  31796.190729     -0.023416                    
P 28 -24588.087773   5534.835970   8359.295501   -200.911795                    
V 28 -10603.284631  -2716.683798 -29342.155021     -0.150640                    
P 29 -12149.667739  -8719.153065  21896.057738   -602.066865                    
V 29  16773.997270 -22292.746337    323.475861      0.012250                    
P 30  26424.370044  -1336.388092  -3495.253254   -406.132965                    
V 30   4427.700540   3556.677184  30598.521858      0.055554                    
P 31 -18156.401643  10404.052020  16373.821319   -228.016656                    
V 31 -20883.805676  -3195.947652 -20466.135544      0.000543                    
P 32 -18944.984750  10891.975528 -14743.432083   -618.019633                    
V 32   8248.524428 -17452.345170 -23359.520191     -0.004990                    
EOF
